$$SOE
2460154.500000000, A.D. 2023-Jul-29 00:00:00.0000, -2.212952091391141E+08, -1.941591527597319E+08, 3.410177479360447E+07,
2460161.500000000, A.D. 2023-Aug-05 00:00:00.0000, -2.130407451642731E+08, -2.036611919825238E+08, 3.974872131832214E+07,
2460168.500000000, A.D. 2023-Aug-12 00:00:00.0000, -2.043931976272897E+08, -2.127874731317590E+08, 4.532234235263295E+07,
2460175.500000000, A.D. 2023-Aug-19 00:00:00.0000, -1.953727338616927E+08, -2.215255432458630E+08, 5.081328814160977E+07,
2460182.500000000, A.D. 2023-Aug-26 00:00:00.0000, -1.860000680761288E+08, -2.298642874284061E+08, 5.621264757675800E+07,
2460189.500000000, A.D. 2023-Sep-02 00:00:00.0000, -1.762963457764596E+08, -2.377939264872484E+08, 6.151197132542685E+07,
2460196.500000000, A.D. 2023-Sep-09 00:00:00.0000, -1.662830313824843E+08, -2.453060045991188E+08, 6.670329011292358E+07,
2460203.500000000, A.D. 2023-Sep-16 00:00:00.0000, -1.559817999705870E+08, -2.523933679169287E+08, 7.177912826348576E+07,
2460210.500000000, A.D. 2023-Sep-23 00:00:00.0000, -1.454144336599713E+08, -2.590501347743332E+08, 7.673251267966807E+07,
2460217.500000000, A.D. 2023-Sep-30 00:00:00.0000, -1.346027237463421E+08, -2.652716572897137E+08, 8.155697763960391E+07,
2460224.500000000, A.D. 2023-Oct-07 00:00:00.0000, -1.235683815309592E+08, -2.710544759291092E+08, 8.624656587907895E+07,
2460231.500000000, A.D. 2023-Oct-14 00:00:00.0000, -1.123329572352719E+08, -2.763962713608133E+08, 9.079582592207024E+07,
2460238.500000000, A.D. 2023-Oct-21 00:00:00.0000, -1.009177640513266E+08, -2.812958130005589E+08, 9.519980585026291E+07,
2460245.500000000, A.D. 2023-Oct-28 00:00:00.0000, -8.934380889130633E+07, -2.857529029468002E+08, 9.945404419636557E+07,
2460252.500000000, A.D. 2023-Nov-04 00:00:00.0000, -7.763173109763584E+07, -2.897683169783883E+08, 1.035545583849403E+08,
2460259.500000000, A.D. 2023-Nov-11 00:00:00.0000, -6.580174883573496E+07, -2.933437440495824E+08, 1.074978310219172E+08,
2460266.500000000, A.D. 2023-Nov-18 00:00:00.0000, -5.387361275366034E+07, -2.964817251084475E+08, 1.112807943619347E+08,
2460273.500000000, A.D. 2023-Nov-25 00:00:00.0000, -4.186656655985844E+07, -2.991855919012668E+08, 1.149008132875990E+08,
2460280.500000000, A.D. 2023-Dec-02 00:00:00.0000, -2.979931415281264E+07, -3.014594063804272E+08, 1.183556671179005E+08,
2460287.500000000, A.D. 2023-Dec-09 00:00:00.0000, -1.768999284072223E+07, -3.033079012999657E+08, 1.216435305322253E+08,
2460294.500000000, A.D. 2023-Dec-16 00:00:00.0000, -5.556151946423816E+06, -3.047364224314843E+08, 1.247629538568743E+08,
2460301.500000000, A.D. 2023-Dec-23 00:00:00.0000, 6.585263989946925E+06, -3.057508720822625E+08, 1.277128429830130E+08,
2460308.500000000, A.D. 2023-Dec-30 00:00:00.0000, 1.871792652035311E+07, -3.063576531640645E+08, 1.304924393414492E+08,
2460315.500000000, A.D. 2024-Jan-06 00:00:00.0000, 3.082612779055929E+07, -3.065636164045795E+08, 1.331013000924684E+08,
2460322.500000000, A.D. 2024-Jan-13 00:00:00.0000, 4.289478185547751E+07, -3.063760126815664E+08, 1.355392782556967E+08,
2460329.500000000, A.D. 2024-Jan-20 00:00:00.0000, 5.490942446749438E+07, -3.058024475175458E+08, 1.378065030616275E+08,
2460336.500000000, A.D. 2024-Jan-27 00:00:00.0000, 6.685620972586584E+07, -3.048508371577027E+08, 1.399033608831268E+08,
2460343.500000000, A.D. 2024-Feb-03 00:00:00.0000, 7.872190355422933E+07, -3.035293672124406E+08, 1.418304768054639E+08,
2460350.500000000, A.D. 2024-Feb-10 00:00:00.0000, 9.049387465509190E+07, -3.018464541533781E+08, 1.435886968627660E+08,
2460357.500000000, A.D. 2024-Feb-17 00:00:00.0000, 1.021600834253126E+08, -2.998107096230773E+08, 1.451790709880579E+08,
2460364.500000000, A.D. 2024-Feb-24 00:00:00.0000, 1.137090691867718E+08, -2.974309074872066E+08, 1.466028367173889E+08,
2460371.500000000, A.D. 2024-Mar-02 00:00:00.0000, 1.251299360531857E+08, -2.947159535848477E+08, 1.478614036703823E+08,
2460378.500000000, A.D. 2024-Mar-09 00:00:00.0000, 1.364123378376625E+08, -2.916748581470483E+08, 1.489563388045264E+08,
2460385.500000000, A.D. 2024-Mar-16 00:00:00.0000, 1.475464626371403E+08, -2.883167105816451E+08, 1.498893524281309E+08,
2460392.500000000, A.D. 2024-Mar-23 00:00:00.0000, 1.585230172070600E+08, -2.846506554021953E+08, 1.506622850691890E+08,
2460399.500000000, A.D. 2024-Mar-30 00:00:00.0000, 1.693332090787597E+08, -2.806858692089143E+08, 1.512770953942778E+08,
2460406.500000000, A.D. 2024-Apr-06 00:00:00.0000, 1.799687268469419E+08, -2.764315419663780E+08, 1.517358488641884E+08,
2460413.500000000, A.D. 2024-Apr-13 00:00:00.0000, 1.904217223290986E+08, -2.718968616183464E+08, 1.520407068514351E+08,
2460420.500000000, A.D. 2024-Apr-20 00:00:00.0000, 2.006847937746833E+08, -2.670909992423703E+08, 1.521939165057717E+08,
2460427.500000000, A.D. 2024-Apr-27 00:00:00.0000, 2.107509687171707E+08, -2.620230951866228E+08, 1.521978014363768E+08,
2460434.500000000, A.D. 2024-May-04 00:00:00.0000, 2.206136866505796E+08, -2.567022467749643E+08, 1.520547531163275E+08,
2460441.500000000, A.D. 2024-May-11 00:00:00.0000, 2.302667818484258E+08, -2.511374975675173E+08, 1.517672229480472E+08,
2460448.500000000, A.D. 2024-May-18 00:00:00.0000, 2.397044664740051E+08, -2.453378280446963E+08, 1.513377149518352E+08,
2460455.500000000, A.D. 2024-May-25 00:00:00.0000, 2.489213140619121E+08, -2.393121476161240E+08, 1.507687790419628E+08,
2460462.500000000, A.D. 2024-Jun-01 00:00:00.0000, 2.579122434753403E+08, -2.330692879109008E+08, 1.500630048470874E+08,
2460469.500000000, A.D. 2024-Jun-08 00:00:00.0000, 2.666725036215743E+08, -2.266179972758098E+08, 1.492230160178941E+08,
2460476.500000000, A.D. 2024-Jun-15 00:00:00.0000, 2.751976593542777E+08, -2.199669358456940E+08, 1.482514649994428E+08,
2460483.500000000, A.D. 2024-Jun-22 00:00:00.0000, 2.834835775793871E+08, -2.131246699277749E+08, 1.471510284285018E+08,
2460490.500000000, A.D. 2024-Jun-29 00:00:00.0000, 2.915264114568423E+08, -2.060996674442399E+08, 1.459244031733793E+08,
2460497.500000000, A.D. 2024-Jul-06 00:00:00.0000, 2.993225853504279E+08, -1.989002968307861E+08, 1.445743025418333E+08,
2460504.500000000, A.D. 2024-Jul-13 00:00:00.0000, 3.068687824793478E+08, -1.915348264973975E+08, 1.431034526810586E+08,
2460511.500000000, A.D. 2024-Jul-20 00:00:00.0000, 3.141619332873918E+08, -1.840114236394520E+08, 1.415145894207350E+08,
2460518.500000000, A.D. 2024-Jul-27 00:00:00.0000, 3.211992038714086E+08, -1.763381533010077E+08, 1.398104555170791E+08,
2460525.500000000, A.D. 2024-Aug-03 00:00:00.0000, 3.279779847365384E+08, -1.685229780120348E+08, 1.379937982191646E+08,
2460532.500000000, A.D. 2024-Aug-10 00:00:00.0000, 3.344958800361205E+08, -1.605737579550192E+08, 1.360673671198699E+08,
2460539.500000000, A.D. 2024-Aug-17 00:00:00.0000, 3.407506973337675E+08, -1.524982515942255E+08, 1.340339122678729E+08,
2460546.500000000, A.D. 2024-Aug-24 00:00:00.0000, 3.467404379038128E+08, -1.443041167487549E+08, 1.318961825161523E+08,
2460553.500000000, A.D. 2024-Aug-31 00:00:00.0000, 3.524632876721981E+08, -1.359989121330289E+08, 1.296569240715984E+08,
2460560.500000000, A.D. 2024-Sep-07 00:00:00.0000, 3.579176091482843E+08, -1.275900992022640E+08, 1.273188792031558E+08,
2460567.500000000, A.D. 2024-Sep-14 00:00:00.0000, 3.631019344185511E+08, -1.190850432723149E+08, 1.248847851649756E+08,
2460574.500000000, A.D. 2024-Sep-21 00:00:00.0000, 3.680149571612990E+08, -1.104910134709687E+08, 1.223573735411271E+08,
2460581.500000000, A.D. 2024-Sep-28 00:00:00.0000, 3.726555231816465E+08, -1.018151847233649E+08, 1.197393697802717E+08,
2460588.500000000, A.D. 2024-Oct-05 00:00:00.0000, 3.770226231208354E+08, -9.306464174580288E+07, 1.170334925702315E+08,
2460595.500000000, A.D. 2024-Oct-12 00:00:00.0000, 3.811153869648560E+08, -8.424638204468690E+07, 1.142424533173586E+08,
2460602.500000000, A.D. 2024-Oct-19 00:00:00.0000, 3.849330785887324E+08, -7.536731817168543E+07, 1.113689558595401E+08,
2460609.500000000, A.D. 2024-Oct-26 00:00:00.0000, 3.884750902914280E+08, -6.643428001951651E+07, 1.084156963412197E+08,
2460616.500000000, A.D. 2024-Nov-02 00:00:00.0000, 3.917409375660397E+08, -5.745401729150849E+07, 1.053853632058764E+08,
2460623.500000000, A.D. 2024-Nov-09 00:00:00.0000, 3.947302541894764E+08, -4.843320211054146E+07, 1.022806372903862E+08,
2460630.500000000, A.D. 2024-Nov-16 00:00:00.0000, 3.974427876454067E+08, -3.937843175506984E+07, 9.910419201091127E+07,
2460637.500000000, A.D. 2024-Nov-23 00:00:00.0000, 3.998783949151672E+08, -3.029623156186303E+07, 9.585869362403795E+07,
2460644.500000000, A.D. 2024-Nov-30 00:00:00.0000, 4.020370388315463E+08, -2.119305802922633E+07, 9.254680153219455E+07,
2460651.500000000, A.D. 2024-Dec-07 00:00:00.0000, 4.039187853995492E+08, -1.207530169054627E+07, 8.917116862024176E+07,
2460658.500000000, A.D. 2024-Dec-14 00:00:00.0000, 4.055238013813335E+08, -2.949288521670353E+06, 8.573444177906054E+07,
2460665.500000000, A.D. 2024-Dec-21 00:00:00.0000, 4.068523498189062E+08, 6.178718888992675E+06, 8.223926272405294E+07,
2460672.500000000, A.D. 2024-Dec-28 00:00:00.0000, 4.079047854613043E+08, 1.530251744734347E+07, 7.868826868263604E+07,
2460679.500000000, A.D. 2025-Jan-04 00:00:00.0000, 4.086815526854598E+08, 2.441595931940045E+07, 7.508409290307520E+07,
2460686.500000000, A.D. 2025-Jan-11 00:00:00.0000, 4.091831840824549E+08, 3.351294902149703E+07, 7.142936528426427E+07,
2460693.500000000, A.D. 2025-Jan-18 00:00:00.0000, 4.094102987862131E+08, 4.258744092024750E+07, 6.772671313252153E+07,
2460700.500000000, A.D. 2025-Jan-25 00:00:00.0000, 4.093636007816753E+08, 5.163343667137507E+07, 6.397876198094747E+07,
2460707.500000000, A.D. 2025-Feb-01 00:00:00.0000, 4.090438773753542E+08, 6.064498257110758E+07, 6.018813644813209E+07,
2460714.500000000, A.D. 2025-Feb-08 00:00:00.0000, 4.084519978805089E+08, 6.961616684387229E+07, 5.635746112939256E+07,
2460721.500000000, A.D. 2025-Feb-15 00:00:00.0000, 4.075889125404350E+08, 7.854111685038461E+07, 5.248936151359911E+07,
$$EOE